{
  "type": "FeatureCollection",
  "features": [
    {
      "type": "Feature",
      "properties": {
        "norad_id": 34823,
        "name": "COSMOS 2251 DEB",
        "group": "cosmos-2251-debris",
        "lat": 62.7758111953097,
        "lon": -91.89927727422445,
        "alt_km": 715.0990008666777,
        "timestamp": "2025-12-02T08:59:33.110047+00:00",
        "meta_object_name": "COSMOS 2251 DEB",
        "meta_object_id": "1993-036ABN",
        "meta_epoch": "2025-12-01T09:21:36.592704",
        "meta_mean_motion": 14.54780684,
        "meta_eccentricity": 0.01557027,
        "meta_inclination": 74.0395,
        "meta_ra_of_asc_node": 123.7629,
        "meta_arg_of_pericenter": 211.2958,
        "meta_mean_anomaly": 147.8868,
        "meta_ephemeris_type": 0,
        "meta_classification_type": "U",
        "meta_norad_cat_id": 34823,
        "meta_element_set_no": 999,
        "meta_rev_at_epoch": 88216,
        "meta_bstar": 0.0011246109,
        "meta_mean_motion_dot": 5.643e-05,
        "meta_mean_motion_ddot": 0,
        "tle_line1": "1 34823U 93036ABN 25335.39000686  .00005643  00000+0  11246-2 0  9994",
        "tle_line2": "2 34823  74.0395 123.7629 0155702 211.2958 147.8868 14.54780684882162"
      },
      "geometry": {
        "type": "Point",
        "coordinates": [
          -91.89927727422445,
          62.7758111953097
        ]
      }
    },
    {
      "type": "Feature",
      "properties": {
        "norad_id": 34845,
        "name": "COSMOS 2251 DEB",
        "group": "cosmos-2251-debris",
        "lat": 55.24165401798626,
        "lon": -167.9179654110081,
        "alt_km": 733.3531654358012,
        "timestamp": "2025-12-02T08:59:33.110057+00:00",
        "meta_object_name": "COSMOS 2251 DEB",
        "meta_object_id": "1993-036ABP",
        "meta_epoch": "2025-11-28T06:44:43.474272",
        "meta_mean_motion": 14.45815545,
        "meta_eccentricity": 0.00217969,
        "meta_inclination": 74.024,
        "meta_ra_of_asc_node": 175.3373,
        "meta_arg_of_pericenter": 338.6212,
        "meta_mean_anomaly": 21.4033,
        "meta_ephemeris_type": 0,
        "meta_classification_type": "U",
        "meta_norad_cat_id": 34845,
        "meta_element_set_no": 999,
        "meta_rev_at_epoch": 87257,
        "meta_bstar": 0.00025523358,
        "meta_mean_motion_dot": 8.81e-06,
        "meta_mean_motion_ddot": 0,
        "tle_line1": "1 34845U 93036ABP 25332.28105873  .00000881  00000+0  25523-3 0  9990",
        "tle_line2": "2 34845  74.0240 175.3373 0021796 338.6212  21.4033 14.45815545872576"
      },
      "geometry": {
        "type": "Point",
        "coordinates": [
          -167.9179654110081,
          55.24165401798626
        ]
      }
    },
    {
      "type": "Feature",
      "properties": {
        "norad_id": 34846,
        "name": "COSMOS 2251 DEB",
        "group": "cosmos-2251-debris",
        "lat": -48.93492222851783,
        "lon": -98.03041126204327,
        "alt_km": 727.6576252090053,
        "timestamp": "2025-12-02T08:59:33.110067+00:00",
        "meta_object_name": "COSMOS 2251 DEB",
        "meta_object_id": "1993-036ABQ",
        "meta_epoch": "2025-12-01T23:16:28.653312",
        "meta_mean_motion": 14.47093819,
        "meta_eccentricity": 0.0025843,
        "meta_inclination": 74.0306,
        "meta_ra_of_asc_node": 281.9137,
        "meta_arg_of_pericenter": 349.7973,
        "meta_mean_anomaly": 10.2658,
        "meta_ephemeris_type": 0,
        "meta_classification_type": "U",
        "meta_norad_cat_id": 34846,
        "meta_element_set_no": 999,
        "meta_rev_at_epoch": 87248,
        "meta_bstar": 0.0011207,
        "meta_mean_motion_dot": 4.076e-05,
        "meta_mean_motion_ddot": 0,
        "tle_line1": "1 34846U 93036ABQ 25335.96977608  .00004076  00000+0  11207-2 0  9995",
        "tle_line2": "2 34846  74.0306 281.9137 0025843 349.7973  10.2658 14.47093819872489"
      },
      "geometry": {
        "type": "Point",
        "coordinates": [
          -98.03041126204327,
          -48.93492222851783
        ]
      }
    },
    {
      "type": "Feature",
      "properties": {
        "norad_id": 34852,
        "name": "COSMOS 2251 DEB",
        "group": "cosmos-2251-debris",
        "lat": 31.98939266204137,
        "lon": -67.66344544849626,
        "alt_km": 755.057433601758,
        "timestamp": "2025-12-02T08:59:33.110077+00:00",
        "meta_object_name": "COSMOS 2251 DEB",
        "meta_object_id": "1993-036ABW",
        "meta_epoch": "2025-12-01T12:47:16.753056",
        "meta_mean_motion": 14.36990223,
        "meta_eccentricity": 0.0015723,
        "meta_inclination": 74.0325,
        "meta_ra_of_asc_node": 283.5822,
        "meta_arg_of_pericenter": 29.7489,
        "meta_mean_anomaly": 330.4555,
        "meta_ephemeris_type": 0,
        "meta_classification_type": "U",
        "meta_norad_cat_id": 34852,
        "meta_element_set_no": 999,
        "meta_rev_at_epoch": 87373,
        "meta_bstar": 0.0001422726,
        "meta_mean_motion_dot": 3.96e-06,
        "meta_mean_motion_ddot": 0,
        "tle_line1": "1 34852U 93036ABW 25335.53283279  .00000396  00000+0  14227-3 0  9996",
        "tle_line2": "2 34852  74.0325 283.5822 0015723  29.7489 330.4555 14.36990223873734"
      },
      "geometry": {
        "type": "Point",
        "coordinates": [
          -67.66344544849626,
          31.98939266204137
        ]
      }
    },
    {
      "type": "Feature",
      "properties": {
        "norad_id": 34854,
        "name": "COSMOS 2251 DEB",
        "group": "cosmos-2251-debris",
        "lat": -72.32615349363977,
        "lon": 62.89830596085995,
        "alt_km": 607.2038042709555,
        "timestamp": "2025-12-02T08:59:33.110088+00:00",
        "meta_object_name": "COSMOS 2251 DEB",
        "meta_object_id": "1993-036ABY",
        "meta_epoch": "2025-12-01T22:02:46.133664",
        "meta_mean_motion": 14.76470003,
        "meta_eccentricity": 0.0066232,
        "meta_inclination": 74.0289,
        "meta_ra_of_asc_node": 179.791,
        "meta_arg_of_pericenter": 293.6475,
        "meta_mean_anomaly": 65.7756,
        "meta_ephemeris_type": 0,
        "meta_classification_type": "U",
        "meta_norad_cat_id": 34854,
        "meta_element_set_no": 999,
        "meta_rev_at_epoch": 71722,
        "meta_bstar": 0.00065989,
        "meta_mean_motion_dot": 4.729e-05,
        "meta_mean_motion_ddot": 0,
        "tle_line1": "1 34854U 93036ABY 25335.91858951  .00004729  00000+0  65989-3 0  9990",
        "tle_line2": "2 34854  74.0289 179.7910 0066232 293.6475  65.7756 14.76470003717222"
      },
      "geometry": {
        "type": "Point",
        "coordinates": [
          62.89830596085995,
          -72.32615349363977
        ]
      }
    },
    {
      "type": "Feature",
      "properties": {
        "norad_id": 34856,
        "name": "COSMOS 2251 DEB",
        "group": "cosmos-2251-debris",
        "lat": -25.6207344903217,
        "lon": 98.24028801560125,
        "alt_km": 556.184572301614,
        "timestamp": "2025-12-02T08:59:33.110098+00:00",
        "meta_object_name": "COSMOS 2251 DEB",
        "meta_object_id": "1993-036ACA",
        "meta_epoch": "2025-12-01T19:18:26.257248",
        "meta_mean_motion": 15.05087103,
        "meta_eccentricity": 0.003481,
        "meta_inclination": 73.9961,
        "meta_ra_of_asc_node": 107.3222,
        "meta_arg_of_pericenter": 245.1535,
        "meta_mean_anomaly": 239.4853,
        "meta_ephemeris_type": 0,
        "meta_classification_type": "U",
        "meta_norad_cat_id": 34856,
        "meta_element_set_no": 999,
        "meta_rev_at_epoch": 88947,
        "meta_bstar": 0.002149,
        "meta_mean_motion_dot": 0.00031082,
        "meta_mean_motion_ddot": 0,
        "tle_line1": "1 34856U 93036ACA 25335.80447057  .00031082  00000+0  21490-2 0  9991",
        "tle_line2": "2 34856  73.9961 107.3222 0034810 245.1535 239.4853 15.05087103889471"
      },
      "geometry": {
        "type": "Point",
        "coordinates": [
          98.24028801560125,
          -25.6207344903217
        ]
      }
    },
    {
      "type": "Feature",
      "properties": {
        "norad_id": 34857,
        "name": "COSMOS 2251 DEB",
        "group": "cosmos-2251-debris",
        "lat": -65.84385191173972,
        "lon": 86.86667470151794,
        "alt_km": 665.9945381687112,
        "timestamp": "2025-12-02T08:59:33.110107+00:00",
        "meta_object_name": "COSMOS 2251 DEB",
        "meta_object_id": "1993-036ACB",
        "meta_epoch": "2025-12-01T10:25:09.031584",
        "meta_mean_motion": 14.58693758,
        "meta_eccentricity": 0.00662722,
        "meta_inclination": 74.0141,
        "meta_ra_of_asc_node": 128.3897,
        "meta_arg_of_pericenter": 254.8213,
        "meta_mean_anomaly": 135.9856,
        "meta_ephemeris_type": 0,
        "meta_classification_type": "U",
        "meta_norad_cat_id": 34857,
        "meta_element_set_no": 999,
        "meta_rev_at_epoch": 87736,
        "meta_bstar": 0.0013396535,
        "meta_mean_motion_dot": 6.416e-05,
        "meta_mean_motion_ddot": 0,
        "tle_line1": "1 34857U 93036ACB 25335.43413231  .00006416  00000+0  13397-2 0  9998",
        "tle_line2": "2 34857  74.0141 128.3897 0066272 254.8213 135.9856 14.58693758877366"
      },
      "geometry": {
        "type": "Point",
        "coordinates": [
          86.86667470151794,
          -65.84385191173972
        ]
      }
    }
  ]
}